KUIPER-00095            
1 65134U 25171C   25274.41297233  .00075054  00000+0  20594-2 0  9998
2 65134  51.8758 159.2727 0004128 340.0166  20.0658 15.36581046  9079
KUIPER-00096            
1 65135U 25171D   25274.40349228  .00069071  00000+0  18707-2 0  9995
2 65135  51.8759 159.2091 0003883 313.1281  46.9381 15.37024510  9070
KUIPER-00097            
1 65136U 25171E   25274.41409919  .00070607  00000+0  19318-2 0  9997
2 65136  51.8755 159.2789 0003940 325.2911  34.7817 15.36699436  9061
KUIPER-00098            
1 65137U 25171F   25274.06845540  .00059954  00000+0  16207-2 0  9999
2 65137  51.8749 160.7243 0005823 306.5757  53.4694 15.37139376  8365
KUIPER-00099            
1 65138U 25171G   25274.39608755  .00074104  00000+0  19925-2 0  9995
2 65138  51.8760 159.1706 0004582 303.7826  56.2724 15.37214104  9068
KUIPER-00100            
1 65139U 25171H   25274.40313676  .00076916  00000+0  20821-2 0  9993
2 65139  51.8753 159.2067 0004355 315.1728  44.8906 15.36988521  9063
KUIPER-00102            
1 65140U 25171J   25274.41396209  .00087235  00000+0  23852-2 0  9992
2 65140  51.8752 159.2754 0004031 324.6315  35.4404 15.36617538  9061
KUIPER-00103            
1 65141U 25171K   25274.50002315 -.00406974  00000+0 -18991-1 0  9999
2 65141  51.8824 159.5793 0004911 308.9996 182.9627 15.21212591  4317
